COSMOS 1933             
1 18958U 88020A   25362.38399863  .00006249  00000+0  31248-3 0  9997
2 18958  82.5135 321.4202 0006521  88.1369 272.0611 15.17245644 39415
SL-3 R/B                
1 19046U 88032B   25362.40985133  .00007112  00000+0  34051-3 0  9998
2 19046  97.5098 341.0248 0028177 120.1985 240.2046 15.18906419 41280
SL-16 R/B               
1 19120U 88039B   25362.31944779 -.00000077  00000+0 -13799-4 0  9991
2 19120  71.0125 219.4571 0019540  89.6083 270.7281 14.19599755948253
COSMOS 1953             
1 19210U 88050A   25351.75027580  .00004793  00000+0  17925-3 0  9993
2 19210  82.5093 240.5536 0013540  56.0210 304.2313 15.26995692 25270
SL-8 R/B                
1 19257U 88053B   25362.41402198  .00000328  00000+0  11471-3 0  9994
2 19257  74.0464 243.8323 0018988  82.0318  90.9140 14.38869209966343
COSMOS 1975             
1 19573U 88093A   25362.51238093  .00010554  00000+0  39965-3 0  9991
2 19573  82.5196 189.0359 0012864  63.3134 296.9420 15.26706652  8543
SL-14 R/B               
1 19574U 88093B   25362.33310067  .00000742  00000+0  82861-4 0  9996
2 19574  82.5318 109.0348 0019214 274.5683 139.2751 14.85567187990448
SL-16 R/B               
1 19650U 88102B   25362.28083045 -.00000033  00000+0  76884-5 0  9992
2 19650  71.0008 301.7432 0012142 125.1856 235.0406 14.16142845916784
INTERCOSMOS 24          
1 20261U 89080A   25362.39471676  .00000862  00000+0  24449-3 0  9998
2 20261  82.6059 150.7755 1189034  98.2210 275.5192 12.59465346657825
SL-14 R/B               
1 20262U 89080C   25362.10524648  .00000386  00000+0  11359-3 0  9993
2 20262  82.5912 219.1561 1230342 348.4759   9.0340 12.50425324651209
DELTA 1 R/B             
1 20323U 89089B   25362.50496933  .00000484  00000+0  12863-3 0  9999
2 20323  97.0742 216.2433 0068834 348.8229  11.1436 14.50585734885411
ARIANE 40 R/B           
1 20443U 90005H   25362.16693884  .00000373  00000+0  13240-3 0  9995
2 20443  98.3223  59.9075 0011096  63.9865 296.2465 14.39810133882512
